{
  "type": "FeatureCollection",
  "features": [
    {
      "type": "Feature",
      "properties": {
        "norad_id": 28890,
        "name": "BEIJING 1",
        "group": "dmc",
        "lat": -22.581901592482765,
        "lon": -55.03209693849169,
        "alt_km": 690.1954232800517,
        "timestamp": "2025-12-26T21:25:52.672878+00:00",
        "meta_object_name": "BEIJING 1",
        "meta_object_id": "2005-043A",
        "meta_epoch": "2025-12-26T15:35:10.906656",
        "meta_mean_motion": 14.63378963,
        "meta_eccentricity": 0.00158632,
        "meta_inclination": 98.2664,
        "meta_ra_of_asc_node": 128.1902,
        "meta_arg_of_pericenter": 100.4442,
        "meta_mean_anomaly": 259.8548,
        "meta_ephemeris_type": 0,
        "meta_classification_type": "U",
        "meta_norad_cat_id": 28890,
        "meta_element_set_no": 999,
        "meta_rev_at_epoch": 7541,
        "meta_bstar": 0.00011630887,
        "meta_mean_motion_dot": 5.53e-06,
        "meta_mean_motion_ddot": 0,
        "tle_line1": "1 28890U 05043A   25360.64943179  .00000553  00000+0  11631-3 0  9995",
        "tle_line2": "2 28890  98.2664 128.1902 0015863 100.4442 259.8548 14.63378963 75413"
      },
      "geometry": {
        "type": "Point",
        "coordinates": [
          -55.03209693849169,
          -22.581901592482765
        ]
      }
    },
    {
      "type": "Feature",
      "properties": {
        "norad_id": 33320,
        "name": "HUANJING 1A (HJ-1A)",
        "group": "dmc",
        "lat": 10.788188368857767,
        "lon": 170.06953210792284,
        "alt_km": 633.3532120544824,
        "timestamp": "2025-12-26T21:25:52.672901+00:00",
        "meta_object_name": "HUANJING 1A (HJ-1A)",
        "meta_object_id": "2008-041A",
        "meta_epoch": "2025-12-26T14:11:46.641984",
        "meta_mean_motion": 14.83437192,
        "meta_eccentricity": 0.001906,
        "meta_inclination": 97.6553,
        "meta_ra_of_asc_node": 348.312,
        "meta_arg_of_pericenter": 350.0346,
        "meta_mean_anomaly": 10.0488,
        "meta_ephemeris_type": 0,
        "meta_classification_type": "U",
        "meta_norad_cat_id": 33320,
        "meta_element_set_no": 999,
        "meta_rev_at_epoch": 93281,
        "meta_bstar": 0.00023594641,
        "meta_mean_motion_dot": 1.892e-05,
        "meta_mean_motion_ddot": 0,
        "tle_line1": "1 33320U 08041A   25360.59151206  .00001892  00000+0  23595-3 0  9995",
        "tle_line2": "2 33320  97.6553 348.3120 0019060 350.0346  10.0488 14.83437192932812"
      },
      "geometry": {
        "type": "Point",
        "coordinates": [
          170.06953210792284,
          10.788188368857767
        ]
      }
    },
    {
      "type": "Feature",
      "properties": {
        "norad_id": 33321,
        "name": "HUANJING 1B (HJ-1B)",
        "group": "dmc",
        "lat": 0.4094990260782576,
        "lon": -7.794294255587217,
        "alt_km": 600.4980989744727,
        "timestamp": "2025-12-26T21:25:52.672916+00:00",
        "meta_object_name": "HUANJING 1B (HJ-1B)",
        "meta_object_id": "2008-041B",
        "meta_epoch": "2025-12-26T14:57:05.472000",
        "meta_mean_motion": 14.82859513,
        "meta_eccentricity": 0.00376752,
        "meta_inclination": 97.6412,
        "meta_ra_of_asc_node": 352.0026,
        "meta_arg_of_pericenter": 31.7378,
        "meta_mean_anomaly": 328.6096,
        "meta_ephemeris_type": 0,
        "meta_classification_type": "U",
        "meta_norad_cat_id": 33321,
        "meta_element_set_no": 999,
        "meta_rev_at_epoch": 93283,
        "meta_bstar": 0.00022936671,
        "meta_mean_motion_dot": 1.829e-05,
        "meta_mean_motion_ddot": 0,
        "tle_line1": "1 33321U 08041B   25360.62298000  .00001829  00000+0  22937-3 0  9993",
        "tle_line2": "2 33321  97.6412 352.0026 0037675  31.7378 328.6096 14.82859513932833"
      },
      "geometry": {
        "type": "Point",
        "coordinates": [
          -7.794294255587217,
          0.4094990260782576
        ]
      }
    },
    {
      "type": "Feature",
      "properties": {
        "norad_id": 33446,
        "name": "YAOGAN-4",
        "group": "dmc",
        "lat": -81.00993853339068,
        "lon": 49.22309608429615,
        "alt_km": 619.1028140545677,
        "timestamp": "2025-12-26T21:25:52.672927+00:00",
        "meta_object_name": "YAOGAN-4",
        "meta_object_id": "2008-061A",
        "meta_epoch": "2025-12-26T05:39:31.954464",
        "meta_mean_motion": 14.82721305,
        "meta_eccentricity": 0.00129545,
        "meta_inclination": 97.9198,
        "meta_ra_of_asc_node": 290.2038,
        "meta_arg_of_pericenter": 275.3518,
        "meta_mean_anomaly": 84.6217,
        "meta_ephemeris_type": 0,
        "meta_classification_type": "U",
        "meta_norad_cat_id": 33446,
        "meta_element_set_no": 999,
        "meta_rev_at_epoch": 92003,
        "meta_bstar": 0.00018765921,
        "meta_mean_motion_dot": 1.463e-05,
        "meta_mean_motion_ddot": 0,
        "tle_line1": "1 33446U 08061A   25360.23578651  .00001463  00000+0  18766-3 0  9992",
        "tle_line2": "2 33446  97.9198 290.2038 0012954 275.3518  84.6217 14.82721305920036"
      },
      "geometry": {
        "type": "Point",
        "coordinates": [
          49.22309608429615,
          -81.00993853339068
        ]
      }
    },
    {
      "type": "Feature",
      "properties": {
        "norad_id": 35681,
        "name": "DEIMOS-1",
        "group": "dmc",
        "lat": 1.3913817646876068,
        "lon": 160.6493382347289,
        "alt_km": 647.1318006597094,
        "timestamp": "2025-12-26T21:25:52.672939+00:00",
        "meta_object_name": "DEIMOS-1",
        "meta_object_id": "2009-041A",
        "meta_epoch": "2025-12-26T14:54:44.637408",
        "meta_mean_motion": 14.74974416,
        "meta_eccentricity": 0.00023944,
        "meta_inclination": 97.7158,
        "meta_ra_of_asc_node": 160.5791,
        "meta_arg_of_pericenter": 58.6265,
        "meta_mean_anomaly": 301.5179,
        "meta_ephemeris_type": 0,
        "meta_classification_type": "U",
        "meta_norad_cat_id": 35681,
        "meta_element_set_no": 999,
        "meta_rev_at_epoch": 88144,
        "meta_bstar": 0.00016841974,
        "meta_mean_motion_dot": 1.085e-05,
        "meta_mean_motion_ddot": 0,
        "tle_line1": "1 35681U 09041A   25360.62134997  .00001085  00000+0  16842-3 0  9991",
        "tle_line2": "2 35681  97.7158 160.5791 0002394  58.6265 301.5179 14.74974416881449"
      },
      "geometry": {
        "type": "Point",
        "coordinates": [
          160.6493382347289,
          1.3913817646876068
        ]
      }
    },
    {
      "type": "Feature",
      "properties": {
        "norad_id": 35683,
        "name": "UK-DMC 2",
        "group": "dmc",
        "lat": 50.30439469453112,
        "lon": 125.8205948014684,
        "alt_km": 637.614940774688,
        "timestamp": "2025-12-26T21:25:52.672950+00:00",
        "meta_object_name": "UK-DMC 2",
        "meta_object_id": "2009-041C",
        "meta_epoch": "2025-12-26T14:41:29.855040",
        "meta_mean_motion": 14.7565229,
        "meta_eccentricity": 0.00016,
        "meta_inclination": 97.8574,
        "meta_ra_of_asc_node": 135.1242,
        "meta_arg_of_pericenter": 91.1939,
        "meta_mean_anomaly": 268.9454,
        "meta_ephemeris_type": 0,
        "meta_classification_type": "U",
        "meta_norad_cat_id": 35683,
        "meta_element_set_no": 999,
        "meta_rev_at_epoch": 88111,
        "meta_bstar": 0.00024248425,
        "meta_mean_motion_dot": 1.607e-05,
        "meta_mean_motion_ddot": 0,
        "tle_line1": "1 35683U 09041C   25360.61215110  .00001607  00000+0  24248-3 0  9998",
        "tle_line2": "2 35683  97.8574 135.1242 0001600  91.1939 268.9454 14.75652290881112"
      },
      "geometry": {
        "type": "Point",
        "coordinates": [
          125.8205948014684,
          50.30439469453112
        ]
      }
    },
    {
      "type": "Feature",
      "properties": {
        "norad_id": 40715,
        "name": "DMC3-FM1",
        "group": "dmc",
        "lat": -58.39119496985667,
        "lon": 34.92376762417892,
        "alt_km": 616.6030084985596,
        "timestamp": "2025-12-26T21:25:52.672962+00:00",
        "meta_object_name": "DMC3-FM1",
        "meta_object_id": "2015-032A",
        "meta_epoch": "2025-12-26T15:30:27.113760",
        "meta_mean_motion": 14.85462395,
        "meta_eccentricity": 0.00041029,
        "meta_inclination": 97.6678,
        "meta_ra_of_asc_node": 227.3314,
        "meta_arg_of_pericenter": 261.9754,
        "meta_mean_anomaly": 98.0996,
        "meta_ephemeris_type": 0,
        "meta_classification_type": "U",
        "meta_norad_cat_id": 40715,
        "meta_element_set_no": 999,
        "meta_rev_at_epoch": 56429,
        "meta_bstar": 8.2509505e-05,
        "meta_mean_motion_dot": 6.6e-06,
        "meta_mean_motion_ddot": 0,
        "tle_line1": "1 40715U 15032A   25360.64614715  .00000660  00000+0  82510-4 0  9999",
        "tle_line2": "2 40715  97.6678 227.3314 0004102 261.9754  98.0996 14.85462395564299"
      },
      "geometry": {
        "type": "Point",
        "coordinates": [
          34.92376762417892,
          -58.39119496985667
        ]
      }
    },
    {
      "type": "Feature",
      "properties": {
        "norad_id": 40716,
        "name": "DMC3-FM2",
        "group": "dmc",
        "lat": 60.000544776817286,
        "lon": 62.528311745589285,
        "alt_km": 609.059908497411,
        "timestamp": "2025-12-26T21:25:52.672973+00:00",
        "meta_object_name": "DMC3-FM2",
        "meta_object_id": "2015-032B",
        "meta_epoch": "2025-12-26T14:25:49.245888",
        "meta_mean_motion": 14.85466669,
        "meta_eccentricity": 0.00045523,
        "meta_inclination": 97.6736,
        "meta_ra_of_asc_node": 228.742,
        "meta_arg_of_pericenter": 269.5407,
        "meta_mean_anomaly": 90.5287,
        "meta_ephemeris_type": 0,
        "meta_classification_type": "U",
        "meta_norad_cat_id": 40716,
        "meta_element_set_no": 999,
        "meta_rev_at_epoch": 56428,
        "meta_bstar": 0.00015335581,
        "meta_mean_motion_dot": 1.271e-05,
        "meta_mean_motion_ddot": 0,
        "tle_line1": "1 40716U 15032B   25360.60126442  .00001271  00000+0  15336-3 0  9991",
        "tle_line2": "2 40716  97.6736 228.7420 0004552 269.5407  90.5287 14.85466669564283"
      },
      "geometry": {
        "type": "Point",
        "coordinates": [
          62.528311745589285,
          60.000544776817286
        ]
      }
    },
    {
      "type": "Feature",
      "properties": {
        "norad_id": 40717,
        "name": "DMC3-FM3",
        "group": "dmc",
        "lat": 2.724370106373947,
        "lon": -129.70219415116264,
        "alt_km": 614.9780589164466,
        "timestamp": "2025-12-26T21:25:52.672983+00:00",
        "meta_object_name": "DMC3-FM3",
        "meta_object_id": "2015-032C",
        "meta_epoch": "2025-12-26T14:57:08.261856",
        "meta_mean_motion": 14.85451396,
        "meta_eccentricity": 0.000387,
        "meta_inclination": 97.6793,
        "meta_ra_of_asc_node": 230.4053,
        "meta_arg_of_pericenter": 270.8241,
        "meta_mean_anomaly": 89.2531,
        "meta_ephemeris_type": 0,
        "meta_classification_type": "U",
        "meta_norad_cat_id": 40717,
        "meta_element_set_no": 999,
        "meta_rev_at_epoch": 56429,
        "meta_bstar": 0.00010085667,
        "meta_mean_motion_dot": 8.18e-06,
        "meta_mean_motion_ddot": 0,
        "tle_line1": "1 40717U 15032C   25360.62301229  .00000818  00000+0  10086-3 0  9995",
        "tle_line2": "2 40717  97.6793 230.4053 0003870 270.8241  89.2531 14.85451396564291"
      },
      "geometry": {
        "type": "Point",
        "coordinates": [
          -129.70219415116264,
          2.724370106373947
        ]
      }
    }
  ]
}